X,Y,FEMA_Region,Food_Bank_Name,Member_Number,Address,City,State,Zip_Code,Web_Page,Facebook_Page,FID,Status,GlobalID
-8100264.9389,5083471.1369,1,Connecticut Food Bank,56,2 Research Parkway,Wallingford,CT,06492,http://www.ctfoodbank.org,http://www.facebook.com/CTFoodBank,1,Unstable,d08f8f10-b551-48e1-a616-0a762c6d899c
-8095873.7712,5140930.3645,1,Foodshare,144,450 Woodland Avenue,Bloomfield,CT,06002-1342,http://www.foodshare.org,http://www.facebook.com/Foodshare,2,Stable,25cd5db6-ec17-4b57-a8da-afeecc293d24
-8083436.943,5220823.3987,1,The Food Bank of Western Massachusetts,35,97 North Hatfield Road,Hatfield,MA,01038,http://www.foodbankwma.org,http://www.facebook.com/FoodBankofWesternMA,3,Stabilizing,335bcef8-154a-4cf2-bad3-f296042e0978
-7910997.9818,5211109.2354,1,The Greater Boston Food Bank,9,70 South Bay Ave,Boston,MA,02118-2700,http://www.gbfb.org,http://www.facebook.com/gr8bosfoodbank,4,Stabilizing,c6bb0ce5-211f-448a-9fb9-94a14d329b16
-7983968.5526,5202477.7638,1,"Worcester County Food Bank, Inc.",186,474 Boston Turnpike,Shrewsbury,MA,01545,http://www.foodbank.org,http://www.facebook.com/WorcesterFoodbank,5,Stable,90e7c1e9-3763-4f41-9cf9-dd3faf6ed4ba
-7824338.7514,5470121.6912,1,Good Shepherd Food Bank,259,3121 Hotel Road,Auburn,ME,04211-1807,http://www.gsfb.org,http://www.facebook.com/feedingmaine,6,Stable,a7fb2259-509f-4c8f-9c2d-ca5609d7b2a7
-7949176.3548,5308845.8518,1,New Hampshire Food Bank,161,700 East Industrial Park Drive,Manchester,NH,03109,http://www.nhfoodbank.org,http://www.facebook.com/nhfoodbank,7,Stable,89b5f742-9928-4902-b1a8-d74c185fe4ee
-7952431.2079,5130593.683,1,Rhode Island Community Food Bank,94,200 Niantic Ave.,Providence,RI,02907,http://www.rifoodbank.org,http://www.facebook.com/RICFB,8,Stable,42f23bff-61b5-44f7-abd5-ccef3b3cc873
-8068784.4846,5492359.2425,1,Vermont Foodbank,189,33 Parker Road,Barre,VT,05641,http://www.vtfoodbank.org/,http://www.facebook.com/VermontFoodbank,9,Stable,94cfdf26-b41e-490e-83b4-3e83f4387e17
-8261485.1415,4967635.3752,2,Community FoodBank of New Jersey,58,31 Evans Terminal,Hillside,NJ,07205-2400,http://www.cfbnj.org,http://www.facebook.com/communityfoodbankofnj,10,Stable,92090178-3996-498f-a287-f817c68adc0e
-8353388.5751,4863284.7832,2,Food Bank of South Jersey,12,1501 John Tipton Boulevard,Pennsauken,NJ,08110,http://www.foodbanksj.org,http://www.facebook.com/foodbankofsouthjersey,11,Stabilizing,cb077ca1-9dec-45ad-942a-34a4472a003d
-8244462.8639,4899298.4058,2,"FULFILL - (The FoodBank of Monmouth and Ocean Counties, Inc.)",310,3300 Route 66,Neptune,NJ,07753,http://www.fulfillnj.org,http://www.facebook.com/fulfillnj/,12,Stable,da8f15fc-4446-4a4c-879d-c4514ca4479c
-8235949.7459,4975070.3768,2,City Harvest,297,"6 East 32nd Street, 5th Fl.",New York,NY,10016,http://www.cityharvest.org,http://www.facebook.com/CityHarvestNYC,13,Stable,f053bcc2-ac20-436c-ba44-4bbe348e5667
-8223391.1671,4984107.5151,2,Food Bank For New York City,10,355 Food Center Dr.,New York,NY,10474,http://www.foodbanknyc.org,http://www.facebook.com/foodbanknyc,14,Stabilizing,dd4d58d8-7f2a-4a7a-8409-316d573ea300
-8216936.7113,5023027.5126,2,Feeding Westchester,222,200 Clearbrook Road,Elmsford,NY,10523,http://feedingwestchester.org/,http://www.facebook.com/foodbankforwestchester/,15,Stabilizing,f30bb219-ea1a-4916-b527-c6e50fdb4a15
-8491030.0313,5328930.2227,2,Food Bank of Central New York,89,7066 Interstate Island Road,Syracuse,NY,13209,http://www.foodbankcny.org,http://www.facebook.com/foodbankcny,16,Stable,c4a513ed-2e38-4e90-9cf6-d7286d27b624
-8552132.406,5181656.3048,2,Food Bank of the Southern Tier,28,388 Upper Oakwood Avenue,Elmira,NY,14903,http://www.foodbankst.org,http://www.facebook.com/foodbanksoutherntier,17,Stabilizing,317c66c9-1c90-411a-9183-af13b7843776
-8775405.9573,5293938.4139,2,FeedMore WNY,11,91 Holt Street,Buffalo,NY,14206,http://www.feedmorewny.org/,http://www.facebook.com/FoodBankWNY,18,Unstable,289eb1cc-8838-4686-a239-6a73a046ebdd
-8645204.0139,5341171.7801,2,"Foodlink, Inc.",75,1999 Mt. Read Boulevard,Rochester,NY,14615-2801,http://www.foodlinkny.org,http://www.facebook.com/FoodlinkNY,19,Stable,a797a36d-d76a-4a95-a32c-3eee68ec60ed
-8180582.2854,4974794.7638,2,Island Harvest,311,15 Grumman Road West Suite 1450,Bethpage,NY,11714,http://www.islandharvest.org,http://www.facebook.com/islandharvest,20,Stabilizing,20887fc1-6028-4a97-bdce-69f1b4a467a8
-8154960.3235,4985743.7086,2,"Long Island Cares, Inc.",207,10 Davids Drive,Hauppauge,NY,11788,http://www.licares.org,http://www.facebook.com/LICares,21,Stabilizing,d6fb8118-8ca6-4840-ae33-55c80dbeadcb
-8216848.6727,5276149.58,2,Regional Food Bank of Northeastern New York,42,965 Albany Shaker Rd.,Latham,NY,12110,http://www.regionalfoodbank.net,http://www.facebook.com/RegionalFoodBankofNENY,22,Stable,ebf02efc-c252-484e-a7dc-204e539fb4e9
-7346891.5832,2085594.6102,2,Banco de Alimentos de Puerto Rico,229,Urbanization Country Club Park C / 272 IC4,Carolina,PR,00984-3990,http://bancodealimentopr.org/,http://www.facebook.com/bdadpr,23,Stabilizing,278fba56-8989-452a-a523-204e05b4ee8d
-8571540.6229,4714127.1331,3,Capital Area Food Bank,95,4900 Puerto Rico Ave NE,Washington,DC,20017-2063,http://www.capitalareafoodbank.org,http://www.facebook.com/CapitalAreaFoodBank,24,Stabilizing,291f2af3-dd87-4396-b89d-e7ca1a28bb40
-8432838.6293,4809926.6934,3,Food Bank of Delaware,59,222 Lake Drive,Newark,DE,19702,http://www.fbd.org,http://www.facebook.com/FoodBankofDE,25,Stable,36e0d10e-7d37-44d7-be99-28882fee13ce
-8536572.6662,4753841.9683,3,Maryland Food Bank,7,2200 Halethorpe Farms Road,Baltimore,MD,21227,http://www.mdfoodbank.org,http://www.facebook.com/MDFoodBank,26,Unstable,9a9f1e94-02f2-46fb-8901-c1a1cbbe7c07
-8551810.9432,4905711.3579,3,Central Pennsylvania Food Bank,87,3908 Corey Road,Harrisburg,PA,17109-5929,http://www.centralpafoodbank.org,http://www.facebook.com/pages/Central-Pennsylvania-Food-Bank/134696280446,27,Stable,28698c6f-82d8-4fd9-982c-109ef6d81c36
-8961752.3922,5046528.805,3,Community Food Warehouse of Mercer County,133,109 S Sharpsville Avenue,Sharon,PA,16146,http://www.foodwarehouse.org,http://www.facebook.com/pages/Community-Food-Warehouse-of-Mercer-County/541662715886249,28,Stable,2ecd8fe8-4440-4bff-9504-7de75691e7f4
-8459521.1675,4911379.2143,3,Helping Harvest,175,117 Morgan Drive,Reading,PA,19608,http://www.helpingharvest.org,http://www.facebook.com/GreaterBerksFoodBank,29,Stable,9874df5b-6654-4e44-8e6b-7c19da2530c2
-8888104.0275,4920644.3777,3,Greater Pittsburgh Community Food Bank,48,1 North Linden Street,Duquesne,PA,15110,http://www.pittsburghfoodbank.org,http://www.facebook.com/pghfoodbank/,30,Stabilizing,35fa729d-c0cc-47b1-a113-6d7acfa14007
-8431926.0575,5055130.8385,3,H and J Weinberg NE PA Regional Food Bank,287,185 Research Drive,Pittston,PA,18640-1127,http://www.ceopeoplehelpingpeople.org,http://www.facebook.com/CEO.nepa,31,Stable,a015bd1f-8194-439b-bd1b-220837fc8678
-8366383.6453,4851742.5547,3,Philabundance,296,3616 S. Galloway Street,Philadelphia,PA,19148,http://www.philabundance.org,http://www.facebook.com/Philabundance,32,Stabilizing,db7c5264-46ef-40a9-b6cf-71874c085b25
-8391955.2268,4969859.5983,3,Second Harvest Food Bank of Lehigh Valley and NE Pennsylvania,106,6969 Silver Crest Road,Nazareth,PA,18064,http://www.shfblv.org,http://www.facebook.com/SHFBofLehighValleyandNEPA,33,Stable,5a0544dc-af1b-4836-a649-af5ef00a4741
-8918132.3056,5177473.5828,3,Second Harvest Food Bank of Northwest Pennsylvania,29,1507 Grimm Drive,Erie,PA,16501,http://www.nwpafoodbank.org,http://www.facebook.com/pages/Second-Harvest-Food-Bank-of-NW-PA/175565862500886,34,Stabilizing,824101d3-9959-4590-9176-662862fe5431
-8859039.6538,4923702.6538,3,Westmoreland County Food Bank,294,100 Devonshire Drive,Delmont,PA,15626,http://www.westmorelandfoodbank.org,http://www.facebook.com/westmorelandfoodbank,35,Stabilizing,8d85d855-a312-410c-8c51-87599a1d6156
-8794810.0624,4607673.8466,3,"Blue Ridge Area Food Bank, Inc.",93,96 Laurel Hill Road,Verona,VA,24482,http://www.brafb.org,http://www.facebook.com/BlueRidgeAreaFoodBank,36,Stabilizing,cebe6800-27d5-4978-a739-78a46ba54715
-8909634.0021,4477993.0408,3,Feeding Southwest Virginia,74,1025 Electric Road,Salem,VA,24153,http://www.faswva.org,http://www.facebook.com/feedingamericaswva,37,Unstable,5ed55f14-b102-4bdc-8ee6-6a3ae77a30a8
-8622342.7063,4518421.9229,3,Feed More,72,1415 Rhoadmiller Street,Richmond,VA,23220,http://www.feedmore.org,http://www.facebook.com/FeedMore,38,Unstable,3c44c2d0-ccd9-403a-8b9d-7ad20d061bb3
-8490873.6218,4418538.0075,3,Foodbank of Southeastern Virginia,60,800 Tidewater Drive,Norfolk,VA,23504,http://www.foodbankonline.org,http://www.facebook.com/SEVAFoodbank,39,Stabilizing,0c133963-c878-414e-becb-4e15855d1e62
-8622239.4952,4617709.6555,3,Fredericksburg Regional Foodbank,136,3631 Lee Hill Drive,Fredericksburg,VA,22408,http://www.fredfood.org/,http://www.facebook.com/FredFood,40,Stable,586b7b90-4eec-475f-a1f9-42e074e17472
-8505244.5228,4439884.4564,3,Virginia Peninsula Foodbank,168,2401 Aluminum Avenue,Hampton,VA,23661,http://www.hrfoodbank.org,http://www.facebook.com/VAPenFoodbank,41,Stable,57c44b82-5076-476c-852d-c2326d420110
-8988151.6033,4672964.1762,3,Mountaineer Food Bank,33,484 Enterprise Drive,Gassaway,WV,26624,http://www.mountaineerfoodbank.org,http://www.facebook.com/pages/Mountaineer-Food-Bank/72691899876,42,Stable,7fa89b35-f849-4104-b26b-ad1b42f54651
-9666844.1744,3958441.8529,4,Community Food Bank of Central Alabama,8,107 Walter Davis Drive,Birmingham,AL,35209,http://www.feedingal.org,http://www.facebook.com/pages/Community-Food-Bank-of-Central-Alabama/140464948519,43,Unstable,754391bf-fb9a-4fb1-9db1-8436e25b3db4
-9814234.0588,3578393.7094,4,Feeding the Gulf Coast,52,5248 Mobile South Street,Theodore,AL,36582,http://www.feedingthegulfcoast.org,http://www.facebook.com/FeedingtheGulfCoast/,44,Unstable,8866af03-6303-44e6-a9fd-8d43436996ec
-9639905.5571,4126438.8584,4,Food Bank of North Alabama,146,2000 B. Vernon Ave.,Huntsville,AL,35805,http://www.foodbanknorthal.org/,http://www.facebook.com/foodbank146,45,Stable,afde7a07-d107-43a3-9bc2-3427ab0e06ee
-9611961.0246,3812122.3261,4,"Montgomery Area Food Bank, Inc.",54,521 Trade Center Street,Montgomery,AL,36108-2107,http://www.montgomeryareafoodbank.org,http://www.facebook.com/#!/pages/Montgomery-Area-Food-Bank/156424507736649,46,Stabilizing,76bd71db-f989-4c7c-84c0-e7786116418f
-9172945.3562,3166881.2953,4,All Faiths Food Bank,284,8171 Blaikie Ct.,Sarasota,FL,34240,http://www.allfaithsfoodbank.org,http://www.facebook.com/AllFaithsFoodBank,47,Stable,e162d274-f68c-4370-bdd4-185663da6f1a
-9386976.6062,3555188.1916,4,"Second Harvest of the Big Bend, Inc.",195,4446 Entrepot Blvd,Tallahassee,FL,32310,http://www.fightinghunger.org,http://www.facebook.com/secondharvestofthebigbend,48,Stable,5d8cf501-f077-4c27-8a1a-457cea1d423a
-9098445.4395,3547391.5263,4,Feeding Northeast Florida,370,"1116 Edgewood Avenue North, Units D and E",Jacksonville,FL,32254,http://www.FeedingNEFL.org,http://www.facebook.com/FeedingNEFL,49,Stable,3fba02a0-ee9a-4b68-a6d1-a0dc93580525
-8924926.7513,2997644.5061,4,Feeding South Florida,50,2501 SW 32 Terrace,Pembroke Park,FL,33023,http://www.feedingsouthflorida.org,http://www.facebook.com/pages/Feeding-South-Florida/161906473872441,50,Stable,f17bf596-a37f-489d-80d3-158ca87ee1d8
-9173382.4534,3243639.9872,4,Feeding Tampa Bay,90,"4702 Transport Dr., Bldg. 6",Tampa,FL,33605-5940,http://feedingtampabay.org,http://www.facebook.com/FeedingTampaBay,51,Stable,ce7ca184-373d-4893-8853-d9f0424f4848
-9112929.5524,3074483.3295,4,Harry Chapin Food Bank of Southwest Florida,280,3760 Fowler St.,Ft. Myers,FL,33901,http://www.harrychapinfoodbank.org,http://www.facebook.com/HarryChapinFoodBank,52,Stable,b713f45d-d6c4-41cc-bdf7-25153c7dd6ce
-9064778.3091,3318260.6427,4,Second Harvest Food Bank of Central Florida,65,411 Mercy Drive,Orlando,FL,32805,http://www.feedhopenow.org,http://www.facebook.com/FeedHopeNow,53,Stable,4e3b6870-c1f4-46a5-8063-1f6c17ed2b07
-8945639.2158,3179946.0737,4,Treasure Coast Food Bank,563,401 Angle Rd.,Ft. Pierce,FL,34947,http://www.stophunger.org,http://www.facebook.com/tcfoodbank,54,Stabilizing,130a0bf1-f959-48aa-a71d-c6d5c61fab8d
-9021756.3847,3771954.9429,4,"America's Second Harvest of Coastal Georgia, Inc.",80,2501 East President Street,Savannah,GA,31404,http://www.helpendhunger.org,http://www.facebook.com/Help.End.Hunger.Ga?ref=ts,55,Stable,7080b82a-bdaa-4d0b-a621-7895ae578749
-9405796.498,3983896.5325,4,Atlanta Community Food Bank,4,3400 N Desert Dr,Atlanta,GA,30344,http://www.acfb.org,http://www.facebook.com/atlfoodbank,56,Stable,de001c9d-761e-432b-b832-af8aa0b7862e
-9447896.4364,3835117.1259,4,Feeding the Valley Food Bank,117,6744 Flat Rock Road,Midland,GA,31820,http://www.feedingthevalley.org,http://www.facebook.com/pages/Feeding-the-Valley/206451742698993,57,Stable,f3a855f4-ab2c-4ace-bd88-d84f3f077c90
-9284151.0376,4029172.2183,4,Food Bank of Northeast Georgia,324,861 Newton Bridge Road,Athens,GA,30604,http://www.foodbanknega.org,http://www.facebook.com/pages/Foodbank-of-Northeast-Georgia/40845907067,58,Stable,dbc48c9f-ccf1-412e-aef5-1193236546a4
-9134876.7151,3955236.1466,4,Golden Harvest Food Bank,5,3310 Commerce Drive,Augusta,GA,30909-4417,http://www.goldenharvest.org,http://www.facebook.com/GoldenHarvestFoodBank,59,Stabilizing,020d028b-f980-476b-8d10-a7358ab6f119
-9302820.3797,3869524.8954,4,Middle Georgia Community Food Bank,159,4490 Ocmulgee East Boulevard,Macon,GA,31217,http://www.mgcfb.org,http://www.facebook.com/pages/Middle-Georgia-Community-Food-Bank/133477780036684,60,Stable,194d5ae2-de60-4219-9aa5-7c17df088580
-9271468.5414,3607535.4506,4,"Second Harvest of South Georgia, Inc",291,1411 Harbin Circle,Valdosta,GA,31601,http://www.feedingsga.org,http://www.facebook.com/pages/Second-Harvest-of-South-Georgia-Inc/136058566460253,61,Stable,8953b173-e879-4515-9482-7e7382ce743f
-9534911.7045,4601478.4371,4,Dare to Care Food Bank,46,5803 Fern Valley Road,Louisville,KY,40232-5458,http://www.daretocare.org,http://www.facebook.com/pages/Dare-to-Care-Food-Bank/108548312118,62,Stable,3adff512-9f8c-452b-b84e-85f63f153be1
-9563006.2545,4534950.453,4,"Feeding America, Kentucky's Heartland",124,"313 Peterson Dr.,",Elizabethtown,KY,42701,http://www.feedingamericaky.org,http://www.facebook.com/pages/Feeding-America-Kentuckys-Heartland/105028761710?ref=mf,63,Stabilizing,e7ce5c19-d704-4231-a0c4-95790a6848b0
-9408446.7426,4591455.5782,4,"God's Pantry Food Bank, Inc.",156,1685 Jaggie Fox Way,Lexington,KY,40511-1084,http://www.godspantry.org,http://www.facebook.com/godspantryfoodbank,64,Stabilizing,ceca0a81-86c7-46b1-9ce9-c0bbc81edc6d
-10040320.986,3800811.8311,4,Mississippi Food Network,149,440 W. Beatty Street,Jackson,MS,39205,http://www.msfoodnet.org,http://www.facebook.com/MSFoodNetwork,65,Unstable,c78b1973-3a33-4ccc-a1f4-516bcb9d75da
-8751408.8193,4273739.5609,4,Food Bank of Central and Eastern North Carolina,70,1924 Capital Boulevard,Raleigh,NC,27604,http://www.foodbankcenc.org,http://www.facebook.com/FoodBankCENC,66,Stable,7634f241-4d47-456c-b7c2-99b5c88c3a74
-8483499.8187,4337633.0448,4,Food Bank of the Albemarle,123,109 Tidewater Way,Elizabeth City,NC,27906-1704,http://www.afoodbank.org,http://www.facebook.com/ECFoodBank/,67,Stable,d93a1033-a549-4481-bcf7-3759625e8b3e
-8756849.0029,4268945.0669,4,Inter-Faith Food Shuttle,309,1001 Blair Drive,Raleigh,NC,27620,http://www.foodshuttle.org,http://www.facebook.com/InterFaithFoodShuttle,68,Unstable,11de2c83-3984-4daa-b600-c6cb700cde51
-9183686.7246,4242624.6507,4,MANNA FoodBank,103,627 Swannanoa River Rd,Asheville,NC,28805,http://www.mannafoodbank.org,http://www.facebook.com/MANNAFoodBank,69,Stable,0571737a-a1e1-4e6b-9b9c-849c2e51b278
-8998961.2143,4196346.0312,4,Second Harvest Food Bank of Metrolina,14,500 B Spratt St.,Charlotte,NC,28206,http://www.secondharvestmetrolina.org/,http://www.facebook.com/pages/Second-Harvest-Food-Bank-of-Metrolina/85064269154,70,Stable,c31f1ac0-95ec-4a05-a9a9-efd82cdb0e4f
-8928965.0537,4307879.1636,4,Second Harvest Food Bank of Northwest North Carolina,97,3655 Reed Street,Winston-Salem,NC,27107,http://www.secondharvestnwnc.org/,http://www.facebook.com/Food.Bank.NWNC,71,Stable,ba667b16-74ce-4682-b791-9211b0a8ed11
-8778025.4049,4169424.1813,4,Second Harvest Food Bank of Southeast North Carolina,134,"406 Deep Creek Road, PO Box 2009",Fayetteville,NC,28302,http://hungercantwait.org,http://www.facebook.com/hungercantwait,72,Stable,d743a653-b4ca-4842-b9b0-8143d32f5a09
-9015736.6163,4023838.938,4,Harvest Hope Food Bank,20,2220 Shop Road,Columbia,SC,29201,http://www.harvesthope.org,http://www.facebook.com/pages/Harvest-Hope-Food-Bank/110374789005998,73,Stabilizing,85cc43c8-3202-401b-b1b0-7e61d9424c0c
-8902469.0901,3874663.1339,4,Lowcountry Food Bank,152,2864 Azalea Drive,Charleston,SC,29405,http://www.lowcountryfoodbank.org,http://www.facebook.com/LowcountryFoodBank,74,Stable,245835ed-bfd5-48e6-bacd-9f2a0d19d97b
-9492751.7118,4172333.2155,4,Chattanooga Area Food Bank,15,2009 Curtain Pole Road,Chattanooga,TN,37406,http://www.chattfoodbank.org,http://www.facebook.com/chattfoodbank,75,Stable,ade27e25-8b89-48ed-9947-a987f4891ce8
-10008689.0723,4169627.731,4,Mid-South Food Bank,49,3865 S Perkins Rd,Memphis,TN,38118,http://www.midsouthfoodbank.org,http://www.facebook.com/midsouthfoodbank,76,Unstable,3b42ffa3-b1ed-43a7-ac89-5c3232e5878b
-9350357.4285,4268945.3292,4,Second Harvest Food Bank of East Tennessee,41,136 Harvest Lane,Maryville,TN,37801,http://secondharvestetn.org/,http://www.facebook.com/netfoodbank,77,Stable,20ef4b39-598b-4bde-bae2-8d5eba818e30
-9661914.5388,4327933.3724,4,Second Harvest Food Bank of Middle Tennessee,55,331 Great Circle Road,Nashville,TN,37228,http://www.secondharvestmidtn.org,http://facebook.com/2HarvestMidTN,78,Unstable,9054e470-a4c4-43cb-bc84-af6427d812d1
-9175988.1425,4371179.5095,4,Second Harvest Food Bank of Northeast Tennessee,219,1020 Jericho Drive,Kingsport,TN,37663,http://www.netfoodbank.org,http://www.facebook.com/netfoodbank,79,Stabilizing,01382be3-2b5a-45e7-bfce-06d9906f21ba
-9977328.6698,4836144.4247,5,Central Illinois Foodbank,84,1937 E. Cook,Springfield,IL,62703,http://www.centralilfoodbank.org,http://www.facebook.com/CentralIllinoisFoodbank,80,Stabilizing,a40c3222-9135-4f49-99a5-7e8af82d49ac
-9820849.8716,4886080.6238,5,Eastern Illinois Foodbank,201,2405 North Shore Drive,Urbana,IL,61802,http://www.eifoodbank.org,http://www.facebook.com/eifoodbank,81,Unstable,9a277c15-7608-462b-811d-0b1fb7993e62
-9754568.6408,5143996.1176,5,Feeding America,0,35 E. Wacker Dr.,Chicago,IL,60601,http://www.feedingameria.org,http://www.facebook.com/feedingamerica,82,Stabilizing,c8c104a2-f34e-4581-b55e-73b3f2ff1a45
-9765650.4128,5133516.3856,5,Greater Chicago Food Depository,16,4100 West Ann Lurie Place,Chicago,IL,60632,http://www.chicagosfoodbank.org,http://www.facebook.com/fooddepository,83,Stabilizing,9066412e-30e8-4d47-9fdf-5ab6cf6c35f9
-9826042.4474,5144198.4138,5,Northern Illinois Food Bank,112,273 Dearborn Court,Geneva,IL,60134-3587,http://www.SolveHungerToday.org,http://www.facebook.com/northernilfoodbank,84,Stable,06ab9327-2ff4-4b65-9e79-27365a917e92
-9475797.3069,5015030.8091,5,"Community Harvest Food Bank of Northeast Indiana, Inc.",135,999 East Tillman Road,Fort Wayne,IN,46855,http://www.chfb.org,http://www.facebook.com/communityharvestfoodbank,85,Stable,47da3f34-f176-4049-82dc-f52cdc445fa3
-9602554.9462,5111331.315,5,Food Bank of Northern Indiana,278,702 South Chapin Street,South Bend,IN,46601-2804,http://www.feedindiana.org,http://www.facebook.com/pages/Food-Bank-of-Northern-Indiana/137194575952,86,Stabilizing,c47bb65e-e2d1-4619-8a8d-2897779c95c6
-9722201.2173,5086614.289,5,"Food Bank of Northwest Indiana, Inc.",139,6490 Broadway,Merrillville,IN,46410,http://www.foodbanknwi.org/,http://www.facebook.com/FoodBankofNorthwestIndiana,87,Stable,b3829045-25d3-4c92-b08c-d3c012b872f0
-9671898.216,4928935.3863,5,Food Finders Food Bank Inc.,369,1204 Greenbush Street,Lafayette,IN,47904,http://www.food-finders.org,http://www.facebook.com/#!/FoodFindersFoodBank,88,Stable,b0afd7d0-a048-4619-bb8a-a07a9304d84e
-9602524.0275,4823981.5054,5,"Gleaners Food Bank of Indiana, Inc.",38,3737 Waldemere Ave.,Indianapolis,IN,46241,http://www.gleaners.org,http://www.facebook.com/GleanersFoodBankofIndiana,89,Stable,8bca0ce5-c4ea-4959-9688-736be920ab25
-9636703.6266,4746726.7743,5,Hoosier Hills Food Bank,303,2333 West Industrial Park Drive,Bloomington,IN,47404,http://www.hhfoodbank.org,http://www.facebook.com/pages/Hoosier-Hills-Food-Bank/48412266243,90,Stabilizing,193cccb8-cf2c-4cdf-b225-6771e2a2a9ee
-9503129.5785,4902241.0511,5,"Second Harvest Food Bank of East Central Indiana, Inc.",102,6621 N. Old SR 3,Muncie,IN,47303,http://www.curehunger.org,http://www.facebook.com/curehunger,91,Stable,6c5827db-c73c-4cbe-a729-9cf658b5fdd8
-9728678.3509,4789771.3849,5,Terre Haute Catholic Charities Foodbank,196,430 N 14th 1/2 St,Terre Haute,IN,47807,http://www.archindy.org/cc/terrehaute/programs-foodbank.html,http://www.facebook.com/CatholicCharitiesTerreHaute,92,Stable,7c9c7af8-4ddc-4167-aaca-05c097e05091
-9746326.1136,4576725.8656,5,"Tri-State Food Bank, Inc.",126,801 E. Michigan Street,Evansville,IN,47711-5631,http://www.tristatefoodbank.org,http://www.facebook.com/Tri.State.Food.Bank,93,Stable,5245e0e8-c7e6-4799-8801-1d4c34c0537b
-9534586.9485,5319427.9638,5,Feeding America West Michigan Food Bank,34,864 West River Center Drive,Comstock Park,MI,49321,http://www.FeedWM.org,http://www.facebook.com/FeedingAmericaWestMichigan,94,Stabilizing,dc8d1599-b4cc-4ad0-ab89-e04ebc704c3b
-9313702.1337,5313391.0391,5,Food Bank of Eastern Michigan,30,2300 Lapeer Road,Flint,MI,48503,http://www.fbem.org,http://www.facebook.com/FoodBankofemich,95,Unstable,e3675008-76aa-407e-963c-13945752107d
-9494290.7696,5211419.1893,5,South Michigan Food Bank,105,5451 Wayne Road,Battle Creek,MI,49016-7327,http://smfoodbank.org/,http://www.facebook.com/pages/Food-Bank-of-South-Central-Michigan/159228594925,96,Stable,2c0d6974-5780-4af4-a8b1-ba55d91c5e71
-9320541.2138,5208588.6169,5,Food Gatherers,305,1 Carrot Way,Ann Arbor,MI,48105,http://www.foodgatherers.org,http://www.facebook.com/foodgatherers,97,Stable,1a55d434-2dfc-4eff-a3e7-a71060da597b
-9261868.303,5229278.6786,5,Forgotten Harvest,306,21800 Greenfield Road,Oak Park,MI,48237,http://www.forgottenharvest.org,http://www.facebook.com/forgottenharvest,98,Unstable,28dde70f-a014-4f25-87a3-d536551dee8e
-9241039.0602,5214170.6673,5,Gleaners Community Food Bank of Southeastern Michigan,27,2131 Beaufait Street,Detroit,MI,48207,http://www.gcfb.org,http://www.facebook.com/Gleanersfan,99,Stable,5f0cd5a3-f73c-49c5-b40a-9599b076cf13
-9413670.4166,5275912.1953,5,Greater Lansing Food Bank,154,919 Filley St.,Lansing,MI,48906,http://www.greaterlansingfoodbank.org,http://www.facebook.com/GLFoodBank1,100,Stabilizing,37fc1731-0bce-4252-8829-0a8cf0afff7d
-10292552.7276,5461124.6818,5,Channel One Food Bank,177,"131 35th Street, SE",Rochester,MN,55904,http://www.helpingfeedpeople.org,http://www.facebook.com/ChannelOneFoodBankandFoodShelf,101,Stable,a3bd50e2-c75e-44a3-8581-b9ebde20b07f
-10797828.0806,6096112.0774,5,"North Country Food Bank, Inc.",119,1011 11th Ave. NE,East Grand Forks,MN,56721,http://northcountryfoodbank.org,http://www.facebook.com/pages/North-Country-Food-Bank-Inc/266176483402393,102,Stable,91f3076f-03e1-4c02-96b2-d41c5c83e3d6
-10089607.0779,5086218.115,7,River Bend Foodbank,53,4010 Kimmel Drive,Davenport,IA,52802,http://www.riverbendfoodbank.org/,http://www.facebook.com/pages/River-Bend-Foodbank/186932404533,103,Unstable,fec620c2-bb2b-4a74-b52c-4e5655b78225
-10832996.2382,4535177.9645,7,Kansas Food Bank,208,1919 E. Douglas,Wichita,KS,67211,http://www.kansasfoodbank.org,http://www.facebook.com/KansasFoodBank,104,Stable,4c201281-2d91-4ef8-93b2-fe39babb9260
-10358505.2375,5623670.772,5,Second Harvest Heartland,86,1140 Gervais Avenue,St. Paul,MN,55109-2042,http://www.2harvest.org,http://www.facebook.com/2harvest,105,Stable,54a58213-a925-4e48-89ec-4d7c0edf25f1
-10521542.9024,4729574.7573,7,Harvesters - The Community Food Network,40,3801 Topping Avenue,Kansas City,MO,64129,http://www.harvesters.org,http://www.facebook.com/harvestersorg,106,Stable,1b451f07-a495-40bf-bf38-2071956317ce
-10379065.7546,4473436.0816,7,Ozarks Food Harvest,192,2810 N. Cedarbrook Ave,Springfield,MO,65803,http://www.ozarksfoodharvest.org,http://www.facebook.com/ozarksfoodharvest,107,Stable,f0392646-086d-4c5f-ab4c-228a59512df0
-10558488.0027,4834456.6185,7,Second Harvest Community Food Bank,193,915 Douglas,St. Joseph,MO,64505,http://www.shcfb.org,http://www.facebook.com/sec.harv,108,Stable,b0de4078-3da0-44af-833f-b9f7e3ee331e
-9967334.9877,4426121.6968,7,Southeast Missouri Food Bank,187,600 State Highway H,Sikeston,MO,63801,http://www.semofoodbank.org,http://www.facebook.com/SoutheastMOFoodBank,109,Stabilizing,f3f24738-f624-4d0b-b181-f45ad77e2bee
-10070051.1946,4690878.3065,7,St. Louis Area Foodbank,85,70 Corporate Woods Drive,Bridgeton,MO,63044,http://stlfoodbank.org/,http://www.facebook.com/stlfoodbank,110,Stable,b5305d6a-84a4-4b98-b4f1-6be49691e41a
-10407677.9611,5978911.2346,5,Second Harvest North Central Food Bank,140,2222 Cromell Drive,Grand Rapids,MN,55744,http://www.secondharvestncfb.com,http://www.facebook.com/SecondHarvestNorthCentral,111,Stabilizing,d40dcf39-3caf-41af-b5cc-880eea31be6c
-10275525.8239,4717626.8867,7,The Food Bank for Central and Northeast Missouri,116,"2101 Vandiver Drive, Suite B",Columbia,MO,65202-1910,http://www.sharefoodbringhope.org,http://www.facebook.com/TheFoodBankMO,112,Stable,ea1a35dd-1422-44a6-bcba-bee8479c865b
-10695327.4578,5043989.2313,7,Food Bank for the Heartland,63,10525  J Street,Omaha,NE,68127-1021,http://www.foodbankheartland.org,http://www.facebook.com/foodbankheartland,113,Stabilizing,dc4fe06a-19b9-4654-99df-519a91999c04
-10759207.1213,4991999.3829,7,"Food Bank of Lincoln, Inc.",157,"4840 Doris Bair Circle, Suite A",Lincoln,NE,68504-1465,http://www.lincolnfoodbank.org,http://www.facebook.com/FoodBankofLincoln,114,Stable,20e38175-6250-4e29-be0c-b7f7df1739ff
-11668710.5132,4697847.0024,8,Care and Share Food Bank,19,2605 Preamble Point,Colorado Springs,CO,80915,http://www.careandshare.org,http://www.facebook.com/careandsharefb,115,Stabilizing,f06c090d-217d-49d1-b21f-1051c413520a
-11701938.3854,4860128.1609,8,Community Food Share,110,650 S. Taylor Ave.,Louisville,CO,80027,http://communityfoodshare.org/,http://www.facebook.com/communityfoodshare,116,Stable,f942fdcd-5898-4e94-b709-32d2556b5cfc
-11688341.4828,4931672.7008,8,Food Bank for Larimer County,137,5706 Wright Drive,Loveland,CO,80538,http://www.foodbanklarimer.org,http://www.facebook.com/foodbankforlarimercounty,117,Stabilizing,d39c808b-96f2-4443-a2b6-12e829b6eda7
-11673357.5145,4833826.8281,8,Food Bank of the Rockies,25,10700 E. 45th Ave,Denver,CO,80239,http://www.foodbankrockies.org,http://www.facebook.com/pages/Food-Bank-of-the-Rockies/28729603879?sid=b56db8dffc93d1f409250e100f6df,118,Stabilizing,144398a1-e480-453e-8fac-253e382d62cc
-11654949.0236,4930718.5934,8,Weld Food Bank,141,1108 H Street,Greeley,CO,80631,http://www.weldfoodbank.org,http://www.facebook.com/weldfoodbank,119,Stabilizing,630efa1b-2105-46d5-bda0-3e46067d5717
-12698732.5759,5929315.968,8,Montana Food Bank Network,320,5625 Expressway,Missoula,MT,59808,http://www.mfbn.org,http://www.facebook.com/feedmontana,120,Stable,5841dc1c-1798-4f67-b205-1d44dc95180c
-10776809.6805,5922327.3799,8,Great Plains Food Bank,220,1720 3rd Avenue North,Fargo,ND,58102,http://www.greatplainsfoodbank.org/,http://www.facebook.com/GreatPlainsFoodBank,121,Stable,53942a2f-d00d-40d3-8066-1165699c7556
-10771567.8683,5403425.5321,8,Feeding South Dakota,188,4701 N Westport Ave,Sioux Falls,SD,57107,http://www.feedingsouthdakota.org,http://www.facebook.com/FeedingSD,122,Stabilizing,8c466ac7-2adc-4e8a-8af6-706656e45e7a
-12458542.6017,4968896.5882,8,Utah Food Bank,279,3150 South 900 West,Salt Lake City,UT,84119,http://www.utahfoodbank.org,http://www.facebook.com/utahfoodbank,123,Stabilizing,be1adea9-3dc4-4172-a0cf-3868edc3101e
-12348276.4317,3788115.2097,9,Community Food Bank of Southern Arizona,91,3003 South Country Club Road,Tucson,AZ,85713,http://www.communityfoodbank.org,http://www.facebook.com/pages/Community-Food-Bank/112454848794673?sk=wall,124,Stable,c482a7cf-692e-4c1a-ad38-d3daf3592390
-12481774.7737,3959074.1146,9,St. Mary's Food Bank Alliance,319,2831 N. 31st Avenue,Phoenix,AZ,85009,http://www.firstfoodbank.org,http://www.facebook.com/firstfoodbank,125,Stabilizing,c4f926a4-59ee-4676-a938-a9ba4ee3bdef
-12451172.0837,3949804.2207,9,United Food Bank,164,245 South Nina Drive,Mesa,AZ,85210,http://www.unitedfoodbank.org,http://www.facebook.com/pages/United-food-Bank/19747724985,126,Stable,dad7aa4e-51ba-46f1-b3e0-557007d49547
-12756493.9644,3853568.8211,9,Yuma Community Food Bank,603,2404 E 24th St. Ste. A,Yuma,AZ,85365,http://www.yumafoodbank.org,http://www.facebook.com/#!/yumafoodbank,127,Stable,bc8358ee-38d0-43b2-9841-dcd7afe66bdd
-13603482.1726,4542910.7013,9,Alameda County Community Food Bank,169,7900 Edgewater Drive,Oakland,CA,94621,http://www.accfb.org,http://www.facebook.com/alcofoodbank,128,Stable,0f27d518-e728-4a59-b21d-b8fde4fe16fc
-13331248.1091,4396504.4296,9,Central California Food Bank,281,4010 E. Hardy Ave,Fresno,CA,93725,http://ccfoodbank.org/,http://www.facebook.com/Communityfoodbankcentralvalley,129,Stabilizing,b1c0c31f-af35-4ffa-9aa8-116776e93ebf
-13069764.141,4018861.7752,9,Feeding America Riverside San Bernardino Counties,73,2950 - A Jefferson Street,Riverside,CA,92504-4360,http://feedingie.org/,http://www.facebook.com/feedingamericaie,130,Stable,cbac6bd6-dfcb-4236-92cd-99b1b432bdee
-13044746.0454,3882186.6398,9,Feeding San Diego,77,"9455 Waples Street, Suite 135",San Diego,CA,92121,http://www.feedingsandiego.org,http://www.facebook.com/feedingsandiego,131,Stable,0ea8dda5-7742-45c1-98e0-59c7f53781ba
-12935567.147,3991077.8403,9,FIND Food Bank,113,83-775 Citrus Ave,Indio,CA,92202,http://www.FINDfoodbank.org,http://www.facebook.com/FINDFoodBank,132,Stable,57639514-8085-4c13-bb4d-a6901846ab64
-13544523.5822,4395046.5748,9,Food Bank for Monterey County,225,"815 W. Market Street, Suite 5",Salinas,CA,93901,http://www.foodbankformontereycounty.org,http://www.facebook.com/TheFoodBankforMontereyCounty,133,Unstable,a464000e-7fad-4e9e-995c-827af471c2c8
-13586204.4275,4580349.7685,9,Food Bank of Contra Costa and Solano,22,4010 Nelson Ave,Concord,CA,94520-1200,http://www.foodbankccs.org,http://www.facebook.com/foodbankccs,134,Unstable,c2b72e5a-2a4f-4069-9767-3ad9efa1f6c7
-13265053.6877,4063200.5693,9,Food Share of Ventura County,66,4156 Southbank Road,Oxnard,CA,93036,http://www.foodshare.com,http://www.facebook.com/FoodShareofVenturaCounty,135,Stable,c24e1ea4-bbef-4d3e-868e-01a13f50737c
-13333553.9041,4087883.2986,9,Foodbank of Santa Barbara County,184,4554 Hollister Avenue,Santa Barbara,CA,93110,http://www.foodbanksbc.org,http://www.facebook.com/FoodbankSB,136,Stable,a7bf3795-0b68-47d9-90e9-38968395bdae
-13162639.4421,4029878.2192,9,Los Angeles Regional Food Bank,45,1734 E. 41st Street,Los Angeles,CA,90058-1502,http://www.lafoodbank.org,http://www.facebook.com/lafoodbank,137,Stable,210f6019-df8b-4418-ac24-1b1198d18ec3
-13503580.4405,4690794.7642,9,Placer Food Bank,178,8284 Industrial Ave,Roseville,CA,95678,http://www.placerfoodbank.org,http://www.facebook.com/placerfoodbank,138,Stable,33bcbe1d-63ec-486c-8c7c-97eee5ee7e50
-13669291.1197,4652291.7228,9,Redwood Empire Food Bank,185,3990 Brickway Blvd,Santa Rosa,CA,95403,http://www.refb.org,http://www.facebook.com/pages/Redwood-Empire-Food-Bank/115482921809001,139,Stabilizing,acabae2f-2412-44f2-bb46-ac3a2ff7bfee
-10260304.4311,5914893.9131,5,Second Harvest Northern Lakes Food Bank,218,4503 Airpark Boulevard,Duluth,MN,55811,http://www.northernlakesfoodbank.org,http://www.facebook.com/northernlakesfoodbank,140,Stable,256abfbe-81a7-4863-bb50-e8f5c6839c58
-13106220.1191,3983896.4204,9,Second Harvest Food Bank of Orange County,64,8014 Marine Way,Irvine,CA,92618,http://www.FeedOC.org,http://www.facebook.com/SecondHarvestFoodBankOC,141,Stabilizing,8fec4b4b-1793-4afa-a859-844009270162
-13492868.7782,4549064.0585,9,Second Harvest Food Bank of San Joaquin and Stanislaus Counties,199,1220 Vanderbilt Cir,Manteca,CA,95337,http://www.localfoodbank.org,http://www.facebook.com/localfoodbank,142,Stable,716c24db-8f29-49ce-ab5f-663e4fbf18f4
-13567306.7301,4479842.8361,9,Second Harvest of Silicon Valley,79,750 Curtner Avenue,San Jose,CA,95125,http://www.SHFB.org,http://www.facebook.com/2ndharvest,143,Stable,5cf8d0f3-eb7a-4698-af8a-5ff58054d3f9
-13555674.1951,4425583.3713,9,Second Harvest Food Bank Santa Cruz County,96,800 Ohlone Parkway,Watsonville,CA,95076-7005,http://www.thefoodbank.org,http://www.facebook.com/SecondHarvestSantaCruz,144,Stable,ab751bdb-49d3-4064-807e-c353e8599027
-13624710.8842,4544798.1004,9,SF-Marin Food Banks,78,900 Pennsylvania Avenue,San Francisco,CA,94107,http://www.sfmfoodbank.org,http://www.facebook.com/sfmfoodbank,145,Stabilizing,7cab18ee-63df-4b82-a42b-1e8d64f79b72
-17576737.1659,2431978.4247,9,"Hawaii Foodbank, Inc.",36,2611 Kilihau St,Honolulu,HI,96819,http://www.hawaiifoodbank.org,http://www.facebook.com/pages/Hawaii-Foodbank/107960259225890,146,Stable,d5a53579-f1d8-469e-ab10-d3021509cecf
-13299882.4385,4798507.7058,9,Food Bank of Northern Nevada,82,550 Italy Dr,Sparks,NV,89437,http://fbnn.org/,http://www.facebook.com/FoodBankNN,147,Stable,91cc0693-b0b7-4404-98d9-be6d3fffb782
-12812490.7852,4333153.0482,9,Three Square Food Bank,155,4190 N. Pecos Rd.,Las Vegas,NV,89115,http://www.threesquare.org,http://www.facebook.com/pages/Three-Square/56816738668,148,Stabilizing,cfaf6c37-7387-4eeb-997d-a079724baff8
-16680248.3659,8677088.6254,10,"Food Bank of Alaska, Inc.",3,2121 Spar Avenue,Anchorage,AK,99501-1886,http://www.foodbankofalaska.org,http://www.facebook.com/pages/Food-Bank-of-Alaska/112124151306,149,Stabilizing,d3eba9ed-86bf-41fc-a4bb-19016d87f062
-12934426.9592,5399266.9574,10,The Idaho Foodbank,109,3562 South TK Avenue,Boise,ID,83705,http://www.idahofoodbank.org,http://www.facebook.com/theidahofoodbank,150,Stabilizing,9cc8b02b-2727-48f6-aa5f-42d9c4a650b4
-13651480.0147,5713366.3959,10,Oregon Food Bank,68,7900 NE 33rd Drive,Portland,OR,97211,http://www.oregonfoodbank.org,http://www.facebook.com/oregonfoodbank,151,Stabilizing,53d3b4f5-59cc-4754-8d9c-19d15fb0bf7c
-13616874.0154,6026783.7306,10,Food Lifeline,81,815 South 96th Street,Seattle,WA,98108,http://www.foodlifeline.org,http://www.facebook.com/FoodLifeline,152,Stable,bc35b3cf-d866-4c4a-9e4d-38e3136109fb
-13067934.4519,6050525.9466,10,Second Harvest Inland Northwest,83,1234 E. Front Avenue,Spokane,WA,99202,http://www.2-harvest.org,http://www.facebook.com/pages/Second-Harvest-Inland-Northwest/123973695052,153,Stabilizing,0f633da7-ea89-4dac-a09a-dba1ede9fd42
-9076547.2712,5023146.2582,5,Akron-Canton Regional Foodbank,100,350 Opportunity Parkway,Akron,OH,44307,http://www.akroncantonfoodbank.org,http://www.facebook.com/akroncantonfoodbank,154,Stable,23c42f54-f716-4eca-b16c-f33086ba404c
-9408723.2505,4737026.512,5,Freestore Foodbank,17,1141 Central Parkway,Cincinnati,OH,45202,http://www.freestorefoodbank.org,http://www.facebook.com/FreestoreFoodbank,155,Stabilizing,726d8ad2-b26c-4747-88e7-0759a68b315e
-9080607.5486,5096302.9925,5,"Greater Cleveland Food Bank, Inc.",18,15500 South Waterloo Road,Cleveland,OH,44110,http://www.GreaterClevelandFoodBank.org,http://www.facebook.com/ClevelandFoodbank,156,Stable,cab649a3-c092-4a4c-a220-bcf4948e060e
-9245204.964,4849003.0175,5,Mid-Ohio Foodbank,21,3960 Brookham Dr.,Grove City,OH,43123,http://www.midohiofoodbank.org,http://www.facebook.com/midohiofoodbank,157,Stable,1666560f-1ba4-4f3c-87a3-9fe4ac2c661b
-9171862.9062,4798847.2321,5,SE Ohio Foodbank,167,1005 CIC Drive,Logan,OH,43138,http://hapcap.org/foodbank,http://www.facebook.com/SeOhioFoodbank,158,Stable,8cb6f149-7fc9-4595-b9b7-d0ae7313fe28
-9159498.9018,5074972.5243,5,Second Harvest Food Bank of North Central Ohio,202,5510 Baumhart Rd,Lorain,OH,44053,http://www.secondharvestfoodbank.org,http://www.facebook.com/Second.Harvest.Food.Bank.Ohio,159,Stable,46e1d642-cffc-4bfb-a13d-3c837ca5ffb2
-8984167.0209,5031338.729,5,Second Harvest Food Bank of the Mahoning Valley,214,2805 Salt Springs Road,Youngstown,OH,44509,http://www.mahoningvalleysecondharvest.org,http://www.facebook.com/SHFBMV,160,Stable,798a2f15-4764-4be9-ac40-b7f7e7982277
-9328418.9737,4855067.099,5,"Second Harvest Foodbank of Clark, Champaign, and Logan Counties",191,701 East Columbia Street,Springfield,OH,45503,http://www.feedccl.org/,http://www.facebook.com/2ndHarvestOH,161,Stable,b5152bbd-cb53-4b0f-9fcd-e3cc355a21e8
-9408286.4328,4768747.7056,5,Shared Harvest Foodbank,129,5901 Dixie Highway,Fairfield,OH,45014-4207,http://www.sharedharvest.org,http://www.facebook.com/sharedharvestfoodbank,162,Stable,05f06a8d-f5a2-4725-9cff-ac63bd7cc5c7
-9374293.6115,4829507.5607,5,"The Foodbank, Inc.",121,56 Armor Place,Dayton,OH,45417,http://www.thefoodbankdayton.org,http://www.facebook.com/thefoodbank,163,Stabilizing,b41b070e-e34f-42ac-b80d-d3b5c375588d
-9300105.0636,5110260.8643,5,Toledo Northwestern Ohio Food Bank,197,24 East Woodruff Avenue,Toledo,OH,43604,http://www.toledofoodbank.org,http://www.facebook.com/toledofoodbank,164,Stable,5f1aff4e-dd08-4bbb-9291-a7d5ccb7d738
-9359828.3041,4972676.5902,5,West Ohio Food Bank,285,1380 East Kibby Street,Lima,OH,45804,http://www.westohiofoodbank.org/,http://www.facebook.com/WestOhioFoodBank,165,Stabilizing,b89b0d34-b2e5-4967-93bb-fe1815921217
-9788653.4443,5320716.149,5,Feeding America Eastern Wisconsin,51,1700 W. Fond Du Lac Avenue,Milwaukee,WI,53205,http://www.feedingamericawi.org/,http://www.facebook.com/FeedingAmericaEasternWisconsin,166,Stable,27ac4924-f7ea-4113-8c16-84b8e40284b9
-9940281.3316,5320850.7517,5,Second Harvest Foodbank of Southern Wisconsin,160,2802 Dairy Drive,Madison,WI,53718,http://www.secondharvestmadison.org,http://www.facebook.com/SecondHarvestFoodbankOfSouthernWisconsin,167,Stable,d80c4784-d556-4ed9-a81b-ebb8742fe5d1
-9176621.8769,4638645.3192,5,Facing Hunger Foodbank,145,1327 Seventh Avenue,Huntington,WV,25701,http://facinghunger.org,http://www.facebook.com/FacingHunger,168,Stabilizing,bc219595-2258-4bd8-8877-788374ff5af9
-10277329.4644,4121816.6866,6,Arkansas Foodbank,43,4301 W 65th St,Little Rock,AR,72209,http://www.arkansasfoodbank.org/,http://www.facebook.com/arkansasfoodbank,169,Stable,3dfd95eb-28c4-4c6f-98a2-de7559c03dd2
-10091008.7795,4273672.2652,6,Food Bank of Northeast Arkansas,151,3414 One Place,Jonesboro,AR,72402,http://www.foodbankofnea.org,http://www.facebook.com/FoodBankofNEA/?fref=ts,170,Stable,042934a0-c5a2-4fcb-9eab-df4236f20f67
-10465033.942,3953928.3376,6,"Harvest Regional Food Bank, Inc.",316,3120 East 19th Street,Texarkana,AR,71854,http://www.harvestregionalfoodbank.org,http://www.facebook.com/harvesttxk,171,Stable,0a297e0f-7230-4336-bdbc-11f81d598aaa
-10476801.2106,4331327.1788,6,Northwest Arkansas Food Bank,611,1378 June Self Drive,Bethel Heights,AR,72764,http://www.NWAfoodbank.org,http://www.facebook.com/nwafoodbank,172,Stable,e91bf051-e8dd-4bf0-aa24-aebebda09c47
-10510528.2253,4208552.7969,6,River Valley Regional Food Bank,138,1617 South Zero Street,Ft. Smith,AR,72918,http://www.rvrfoodbank.org/,http://www.facebook.com/RiverValleyRegionalFoodBank,173,Unstable,7528e721-74a8-4e9a-984f-5884af66bbec
-10291764.6022,3667892.0066,6,Food Bank of Central Louisiana,276,3223 Baldwin Avenue,Alexandria,LA,71301,http://www.fbcenla.org,http://www.facebook.com/Foodbankofcentrallouisiana,174,Stabilizing,25b6b8bc-db55-4554-8a6b-8d43a3b596e2
-10248183.6652,3830786.5753,6,Food Bank of Northeast Louisiana,339,4600 Central Ave,Monroe,LA,71211,http://www.foodbanknela.org/,http://www.facebook.com/FBNELA,175,Stable,2c67616c-b517-48e9-826b-e3ff5b476f10
-10438109.9012,3827670.7199,6,Food Bank of Northwest Louisiana,326,2307 Texas Avenue,Shreveport,LA,71103,http://www.foodbanknla.org/,http://www.facebook.com/pages/Food-Bank-of-Northwest-Louisiana/103692218325,176,Stable,2450dc0e-6703-441a-adb0-ccc954cf9580
-10137479.8524,3564386.2555,6,Greater Baton Rouge Food Bank,298,10600 S. Choctaw Drive,Baton Rouge,LA,70815,http://www.brfoodbank.org,http://www.facebook.com/GBRFoodBank,177,Unstable,dcca6021-b9e3-431b-a2b9-ce8bc4c26b28
-10040213.341,3497360.5685,6,Second Harvest Food Bank of Greater New Orleans and Acadiana,57,700 Edwards Avenue,New Orleans,LA,70123,http://www.no-hunger.org,http://www.facebook.com/2ndHarvestGNOA,178,Stabilizing,1240437e-e61f-4fb4-9025-7a2dd3ac25fa
-11872117.9396,4175333.5641,6,Roadrunner Food Bank,1,5840 Office Blvd NE,Albuquerque,NM,87109,http://www.rrfb.org,http://www.facebook.com/roadrunner.food.bank,179,Stable,f3148953-e8fd-4ed4-b9e0-80ce22d80b82
-10684697.2108,4324532.0958,6,Community Food Bank of Eastern Oklahoma,92,1304 N. Kenosha Ave.,Tulsa,OK,74106,http://www.okfoodbank.org,http://www.facebook.com/okfoodbank,180,Stabilizing,85f1aed8-25b9-41df-8d8e-f97d06a7f9f8
-10866304.0642,4222540.165,6,Regional Food Bank of Oklahoma,62,3355 S. Purdue,Oklahoma City,OK,73179,http://www.regionalfoodbank.org,http://www.facebook.com/regionalfoodbank,181,Stable,f1a2eead-0dfb-474c-9824-c9fc7a09f662
-10876949.1836,3529663.3529,6,Central Texas Food Bank,6,6500 Metropolis Drive,Austin,TX,78744,http://www.centraltexasfoodbank.org/,http://www.facebook.com/CentralTexasFoodBank,182,Stable,c07eba16-8db7-4710-94fe-4bc2f81b625b
-10612587.9094,3807102.1694,6,East Texas Food Bank,216,3201 Robertson Road,Tyler,TX,75701,http://www.EastTexasFoodBank.org,http://www.facebook.com/etfoodbank,183,Stabilizing,8ee0208f-4bc4-4276-bfe6-8841d8a37858
-11835937.2683,3720027.0995,6,El Pasoans Fighting Hunger,726,9541 Plaza Circle,El Paso,TX,79927,http://www.elpasoansfightinghunger.org/,http://www.facebook.com/ElPasoansFightingHunger,184,Stabilizing,90c99839-9678-4c08-a57f-45db91428b78
-10848706.1444,3223936.6539,6,Coastal Bend Food Bank,23,826 Krill St.,Corpus Christi,TX,78408,http://coastalbendfoodbank.org/,http://www.facebook.com/FoodBankofCorpusChristi,185,Stable,73a39b8c-51d8-4ede-b121-774c9dd68ded
-10793607.1342,3351312.742,6,Food Bank of the Golden Crescent,290,3809 E. Rio Grande,Victoria,TX,77901,http://www.tfbgc.org,http://www.facebook.com/foodbankofthegc,186,Stable,c33db352-abdb-42a1-a8bb-ba4e0df4b760
-10929662.0937,3024070.998,6,"Food Bank of the Rio Grande Valley, Inc.",221,724 N. Cage Blvd.,Pharr,TX,78577,http://www.foodbankrgv.com,http://www.facebook.com/FoodBankRGV,187,Stable,de1d32b2-7e4d-4df2-a344-871fb405a921
-11109071.7236,3823187.0355,6,Food Bank of West Central Texas,98,5505 N. First,Abilene,TX,79603,http://www.fbwct.org,http://www.facebook.com/wctfoodbank,188,Stabilizing,a9667c4a-e158-4087-a80a-f4ebeafd700f
-11334060.9076,4191429.0862,6,High Plains Food Bank,2,815 S. Ross,Amarillo,TX,79120,http://www.hpfb.org,http://www.facebook.com/highplainsfoodbank,189,Unstable,47480004-6e36-4f34-a36b-c46f49351bda
-10606049.9095,3475387.272,6,Houston Food Bank,37,535 Portwall Street,Houston,TX,77029,http://www.HoustonFoodBank.org,http://www.facebook.com/thehoustonfoodbank,190,Stable,1113454e-310b-433c-84c9-b00fd6fc191b
-10771451.3866,3895745.5866,6,North Texas Food Bank,24,3677 Mapleshade Lane,Plano,TX,75075,http://www.ntfb.org,http://www.facebook.com/northtexasfoodbank,191,Stable,702cc7cf-41a5-47a9-8476-a7442b370327
-10975246.2887,3429004.1644,6,San Antonio Food Bank,76,5200 Enrique M Barrera Pkwy,San Antonio,TX,78227-2209,http://www.safoodbank.org,http://www.facebook.com/safoodbank,192,Stable,d83552ce-cb00-409c-b372-497b67235c34
-11334248.1532,3967570.6709,6,South Plains Food Bank,47,5605 MLK Boulevard,Lubbock,TX,79404,http://www.spfb.org,http://www.facebook.com/pages/South-Plains-Food-Bank/115034736092,193,Stable,395c86fa-b7f3-416e-8eb6-86882f8d9f9b
-11078139.7422,3188995.1433,6,South Texas Food Bank,627,2121 Jefferson St.,Laredo,TX,78040,http://www.southtexasfoodbank.org/,http://www.facebook.com/southtexasfoodbank,194,Stable,45a65bb5-3269-469b-a65b-cb347b7590d5
-10472637.7991,3509948.5327,6,Southeast Texas Food Bank,323,3845 Martin Luther King Parkway,Beaumont,TX,77705,http://setxfoodbank.org,http://www.facebook.com/SETXFOODBANK,195,Stable,a07a799e-4cda-4981-8a9f-ea6d83d89f85
-10837290.3134,3863695.7151,6,Tarrant Area Food Bank,31,2600 Cullen,Ft. Worth,TX,76107,http://www.tafb.org,http://www.facebook.com/TAFoodBank,196,Stable,a923fef2-cf4d-46fe-9ed3-766fb8ae782e
-11390623.7887,3745080.345,6,West Texas Food Bank,170,411 S. Pagewood Ave.,Odessa,TX,79761,http://www.wtxfoodbank.org,http://www.facebook.com/FeedWestTX,197,Stable,5257034c-88a7-4ff6-bb7b-6a507432f81e
-10963608.6802,4012320.4257,6,Wichita Falls Area Food Bank,209,1230 Midwestern Parkway,Wichita Falls,TX,76307,http://www.wfafb.org,http://www.facebook.com/WFAFB,198,Stable,21692c55-5127-479d-a13d-9e490437ef23
-10418646.7329,5103389.3271,7,Food Bank of Iowa,26,2220 E. 17th Street,Des Moines,IA,50316,http://www.foodbankiowa.org,http://www.facebook.com/foodbankiowa,199,Stable,e62812ea-59a1-4d8c-add7-002db5857acd
-10205482.3774,5169216.2182,7,HACAP Food Reservoir,114,1515 Hawkeye Drive,Hiawatha,IA,52233,http://www.hacap.org,http://www.facebook.com/hacap,200,Stable,89a993de-704c-4322-a073-16247770151f
-10277247.322,5235096.399,7,Northeast Iowa Food Bank,206,1605 Lafayette Steet,Waterloo,IA,50703,http://www.northeastiowafoodbank.org,http://www.facebook.com/NEIFB,201,Stable,f6bbf931-f35e-42ad-84be-cca3ee4074d3
